CTC2_L_00111016-03
1 31225U 26062GS  26037.47791667  .00000000  00000+0  00000-0 0  9993
2 31225  55.0000 180.0000 0000000   0.0000   0.0000 14.51731110    19
CTC2_L_00111016-04
1 31226U 24610GI  26037.47791667  .00000000  00000+0  00000-0 0  9991
2 31226  55.0000 180.0000 0000000   0.0000  90.0000 14.51731110    19
CTC2_L_00111017-01
1 31227U 25112UD  26037.47791667  .00000000  00000+0  00000-0 0  9990
2 31227  55.0000 192.0000 0000000   0.0000 192.0000 14.51731110    16
CTC2_L_00111017-02
1 31228U 22941UB  26037.47791667  .00000000  00000+0  00000-0 0  9998
2 31228  55.0000 192.0000 0000000   0.0000 282.0000 14.51731110    17
CTC2_L_00111017-03
1 31229U 22513QD  26037.47791667  .00000000  00000+0  00000-0 0  9994
2 31229  55.0000 192.0000 0000000   0.0000  12.0000 14.51731110    19
CTC2_L_00111017-04
1 31230U 25778HC  26037.47791667  .00000000  00000+0  00000-0 0  9992
2 31230  55.0000 192.0000 0000000   0.0000 102.0000 14.51731110    11
CTC2_L_00111018-01
1 31231U 26371IZ  26037.47791667  .00000000  00000+0  00000-0 0  9993
2 31231  55.0000 204.0000 0000000   0.0000 204.0000 14.51731110    19
CTC2_L_00111018-02
1 31232U 24602HE  26037.47791667  .00000000  00000+0  00000-0 0  9999
2 31232  55.0000 204.0000 0000000   0.0000 294.0000 14.51731110    19
CTC2_L_00111018-03
1 31233U 25732KN  26037.47791667  .00000000  00000+0  00000-0 0  9995
2 31233  55.0000 204.0000 0000000   0.0000  24.0000 14.51731110    11
CTC2_L_00111018-04
1 31234U 22705RT  26037.47791667  .00000000  00000+0  00000-0 0  9993
2 31234  55.0000 204.0000 0000000   0.0000 114.0000 14.51731110    12
CTC2_L_00111019-01
1 31235U 22437WV  26037.47791667  .00000000  00000+0  00000-0 0  9996
2 31235  55.0000 216.0000 0000000   0.0000 216.0000 14.51731110    19
CTC2_L_00111019-02
1 31236U 22890CO  26037.47791667  .00000000  00000+0  00000-0 0  9990
2 31236  55.0000 216.0000 0000000   0.0000 306.0000 14.51731110    10
CTC2_L_00111019-03
1 31237U 25151TA  26037.47791667  .00000000  00000+0  00000-0 0  9994
2 31237  55.0000 216.0000 0000000   0.0000  36.0000 14.51731110    11
CTC2_L_00111019-04
1 31238U 23183JZ  26037.47791667  .00000000  00000+0  00000-0 0  9998
2 31238  55.0000 216.0000 0000000   0.0000 126.0000 14.51731110    12
CTC2_L_00111020-01
1 31239U 22038WR  26037.47791667  .00000000  00000+0  00000-0 0  9997
2 31239  55.0000 228.0000 0000000   0.0000 228.0000 14.51731110    19
CTC2_L_00111020-02
1 31240U 25348NN  26037.47791667  .00000000  00000+0  00000-0 0  9996
2 31240  55.0000 228.0000 0000000   0.0000 318.0000 14.51731110    11
CTC2_L_00111020-03
1 31241U 26039HH  26037.47791667  .00000000  00000+0  00000-0 0  9995
2 31241  55.0000 228.0000 0000000   0.0000  48.0000 14.51731110    12
CTC2_L_00111020-04
1 31242U 24117BT  26037.47791667  .00000000  00000+0  00000-0 0  9991
2 31242  55.0000 228.0000 0000000   0.0000 138.0000 14.51731110    13
CTC2_L_00111021-01
1 31243U 25929BK  26037.47791667  .00000000  00000+0  00000-0 0  9994
2 31243  55.0000 240.0000 0000000   0.0000 240.0000 14.51731110    12
CTC2_L_00111021-02
1 31244U 23406RK  26037.47791667  .00000000  00000+0  00000-0 0  9993
2 31244  55.0000 240.0000 0000000   0.0000 330.0000 14.51731110    13
CTC2_L_00111021-03
1 31245U 23036FM  26037.47791667  .00000000  00000+0  00000-0 0  9993
2 31245  55.0000 240.0000 0000000   0.0000  60.0000 14.51731110    14
CTC2_L_00111021-04
1 31246U 26932UR  26037.47791667  .00000000  00000+0  00000-0 0  9992
2 31246  55.0000 240.0000 0000000   0.0000 150.0000 14.51731110    15
CTC2_L_00111022-01
1 31247U 26292GL  26037.47791667  .00000000  00000+0  00000-0 0  9992
2 31247  55.0000 252.0000 0000000   0.0000 252.0000 14.51731110    12
CTC2_L_00111022-02
1 31248U 26487MH  26037.47791667  .00000000  00000+0  00000-0 0  9999
2 31248  55.0000 252.0000 0000000   0.0000 342.0000 14.51731110    13
CTC2_L_00111022-03
1 31249U 26551ZO  26037.47791667  .00000000  00000+0  00000-0 0  9992
2 31249  55.0000 252.0000 0000000   0.0000  72.0000 14.51731110    14
CTC2_L_00111022-04
1 31250U 26228PM  26037.47791667  .00000000  00000+0  00000-0 0  9995
2 31250  55.0000 252.0000 0000000   0.0000 162.0000 14.51731110    16
CTC2_L_00111023-01
1 31251U 22468T   26037.47791667  .00000000  00000+0  00000-0 0  9998
2 31251  55.0000 264.0000 0000000   0.0000 264.0000 14.51731110    13
CTC2_L_00111023-02
1 31252U 23548CG  26037.47791667  .00000000  00000+0  00000-0 0  9999
2 31252  55.0000 264.0000 0000000   0.0000 354.0000 14.51731110    14
CTC2_L_00111023-03
1 31253U 23582EI  26037.47791667  .00000000  00000+0  00000-0 0  9998
2 31253  55.0000 264.0000 0000000   0.0000  84.0000 14.51731110    15
CTC2_L_00111023-04
1 31254U 22352YR  26037.47791667  .00000000  00000+0  00000-0 0  9993
2 31254  55.0000 264.0000 0000000   0.0000 174.0000 14.51731110    16
CTC2_L_00111024-01
1 31255U 26890BS  26037.47791667  .00000000  00000+0  00000-0 0  9995
2 31255  55.0000 276.0000 0000000   0.0000 276.0000 14.51731110    13
CTC2_L_00111024-02
1 31256U 24526AO  26037.47791667  .00000000  00000+0  00000-0 0  9990
2 31256  55.0000 276.0000 0000000   0.0000   6.0000 14.51731110    15
CTC2_L_00111024-03
1 31257U 23422YR  26037.47791667  .00000000  00000+0  00000-0 0  9995
2 31257  55.0000 276.0000 0000000   0.0000  96.0000 14.51731110    15
CTC2_L_00111024-04
1 31258U 24424SK  26037.47791667  .00000000  00000+0  00000-0 0  9999
2 31258  55.0000 276.0000 0000000   0.0000 186.0000 14.51731110    16
CTC2_L_00111025-01
1 31259U 22617KH  26037.47791667  .00000000  00000+0  00000-0 0  9992
2 31259  55.0000 288.0000 0000000   0.0000 288.0000 14.51731110    13
CTC2_L_00111025-02
1 31260U 24769QP  26037.47791667  .00000000  00000+0  00000-0 0  9994
2 31260  55.0000 288.0000 0000000   0.0000  18.0000 14.51731110    16
CTC2_L_00111025-03
1 31261U 22909IK  26037.47791667  .00000000  00000+0  00000-0 0  9999
2 31261  55.0000 288.0000 0000000   0.0000 108.0000 14.51731110    17
CTC2_L_00111025-04
1 31262U 26992CA  26037.47791667  .00000000  00000+0  00000-0 0  9996
2 31262  55.0000 288.0000 0000000   0.0000 198.0000 14.51731110    17
CTC2_L_00111026-01
1 31263U 24908SV  26037.47791667  .00000000  00000+0  00000-0 0  9992
2 31263  55.0000 300.0000 0000000   0.0000 300.0000 14.51731110    18
CTC2_L_00111026-02
1 31264U 23797PB  26037.47791667  .00000000  00000+0  00000-0 0  9998
2 31264  55.0000 300.0000 0000000   0.0000  30.0000 14.51731110    19
CTC2_L_00111026-03
1 31265U 26669VY  26037.47791667  .00000000  00000+0  00000-0 0  9990
2 31265  55.0000 300.0000 0000000   0.0000 120.0000 14.51731110    10
CTC2_L_00111026-04
1 31266U 22007CQ  26037.47791667  .00000000  00000+0  00000-0 0  9993
2 31266  55.0000 300.0000 0000000   0.0000 210.0000 14.51731110    11
CTC2_L_00111027-01
1 31267U 22308CY  26037.47791667  .00000000  00000+0  00000-0 0  9998
2 31267  55.0000 312.0000 0000000   0.0000 312.0000 14.51731110    18
CTC2_L_00111027-02
1 31268U 25984CM  26037.47791667  .00000000  00000+0  00000-0 0  9992
2 31268  55.0000 312.0000 0000000   0.0000  42.0000 14.51731110    19
CTC2_L_00111027-03
1 31269U 25649GD  26037.47791667  .00000000  00000+0  00000-0 0  9991
2 31269  55.0000 312.0000 0000000   0.0000 132.0000 14.51731110    10
CTC2_L_00111027-04
1 31270U 25663AD  26037.47791667  .00000000  00000+0  00000-0 0  9999
2 31270  55.0000 312.0000 0000000   0.0000 222.0000 14.51731110    12
CTC2_L_00111028-01
1 31271U 24927JY  26037.47791667  .00000000  00000+0  00000-0 0  9992
2 31271  55.0000 324.0000 0000000   0.0000 324.0000 14.51731110    19
CTC2_L_00111028-02
1 31272U 25388ZJ  26037.47791667  .00000000  00000+0  00000-0 0  9995
2 31272  55.0000 324.0000 0000000   0.0000  54.0000 14.51731110    10
CTC2_L_00111028-03
1 31273U 25362VH  26037.47791667  .00000000  00000+0  00000-0 0  9998
2 31273  55.0000 324.0000 0000000   0.0000 144.0000 14.51731110    11
CTC2_L_00111028-04
1 31274U 26650KN  26037.47791667  .00000000  00000+0  00000-0 0  9990
2 31274  55.0000 324.0000 0000000   0.0000 234.0000 14.51731110    12
CTC2_L_00111029-01
1 31275U 25294EL  26037.47791667  .00000000  00000+0  00000-0 0  9994
2 31275  55.0000 336.0000 0000000   0.0000 336.0000 14.51731110    19
CTC2_L_00111029-02
1 31276U 25074VV  26037.47791667  .00000000  00000+0  00000-0 0  9991
2 31276  55.0000 336.0000 0000000   0.0000  66.0000 14.51731110    10
CTC2_L_00111029-03
1 31277U 25052OZ  26037.47791667  .00000000  00000+0  00000-0 0  9998
2 31277  55.0000 336.0000 0000000   0.0000 156.0000 14.51731110    11
CTC2_L_00111029-04
1 31278U 25261TC  26037.47791667  .00000000  00000+0  00000-0 0  9991
2 31278  55.0000 336.0000 0000000   0.0000 246.0000 14.51731110    12
CTC2_L_00111030-01
1 31279U 26794KL  26037.47791667  .00000000  00000+0  00000-0 0  9994
2 31279  55.0000 348.0000 0000000   0.0000 348.0000 14.51731110    19
CTC2_L_00111030-02
1 31280U 26136TH  26037.47791667  .00000000  00000+0  00000-0 0  9996
2 31280  55.0000 348.0000 0000000   0.0000  78.0000 14.51731110    11
CTC2_L_00111030-03
1 31281U 24881F   26037.47791667  .00000000  00000+0  00000-0 0  9992
2 31281  55.0000 348.0000 0000000   0.0000 168.0000 14.51731110    12
CTC2_L_00111030-04
1 31282U 26207VQ  26037.47791667  .00000000  00000+0  00000-0 0  9997
2 31282  55.0000 348.0000 0000000   0.0000 258.0000 14.51731110    13
